{
"name":"WhatsApp",
"version":"21.1",
"Working":true,
"stable":true,
"developers":[{"name":"Kushi",
"experince":"2 years",
"skills":["DataAnalysis","CloudComputing","MachineLearning","CyberSecrity","NetworkingAndWirless","Programming","SoftwareDevelopement","ProjectManagement"],
"Salary":30000,
"Married":"yes",
"transport":{"name":"Orangetrevals","time":"08.30","date":"23/5/2022",
"driver":{"name":"Arun","location":"Bagalkot","licenseno":"STR476776207353"},

"companyName":"OrangePvtLmt",

"vehicles":[{"company":{"name":"Honda","gstno":"22SARDA0043A1Z5",
"address":[{"streetno":45,"city":"Belgavi","state":"karanataka","pincode":432678},
{"streetno":32,"city":"Dharwad","state":"karanataka","pincode":561137}]},
"regNo":"KA03FA2581","chasisno":"52WVC10338","permitno":"23GA"},

{"company":{"name":"TATA","gstno":"22SARDA0043A1Z5",
"address":[{"streetno":45,"city":"Gadag","state":"karanataka","pincode":537728},
{"streetno":32,"city":"Dharwad","state":"karanataka","pincode":561137}]},
"regNo":"KA03FA2583","chasisno":"52WVC10334","permitno":"23GA"},

{"company":{"name":"PUMA","gstno":"22SARDA0043A1Z5",
"address":[{"streetno":45,"city":"Dharwad","state":"karanataka","pincode":211647},
{"streetno":32,"city":"Dharwad","state":"karanataka","pincode":561137}]},
"regNo":"KA03FA2581","chasisno":"52WVC10865","permitno":"23GA"},

{"company":{"name":"Dell","gstno":"22SARDA0043A1Z5",
"address":[{"streetno":45,"city":"Hasan","state":"karanataka","pincode":432674},
{"streetno":32,"city":"Dharwad","state":"karanataka","pincode":561137}]},
"regNo":"KA03FA2581","chasisno":"52WVC10865","permitno":"23GA"},

{"company":{"name":"Samsung","gstno":"22SARDA0043A1Z5",
"address":[{"streetno":45,"city":"Ballari","state":"karanataka","pincode":865432},
{"streetno":32,"city":"Dharwad","state":"karanataka","pincode":561137}]},
"regNo":"GA03FA2581","chasisno":"52WVC10672","permitno":"23GA"}]
				 
}
},
{"name":"Kiran,
"experince":"3.5 years",
"skills":["DataAnalysis","CloudComputing","MachineLearning","CyberSecrity","NetworkingAndWirless","Programming","SoftwareDevelopement","ProjectManagement"],
"Salary":35000,
"Married":"yes",
"transport":{"name":"SRStrevals","time":"10.30","date":"24/6/2022",
"driver":{"name":"Arun","location":"Bagalkot","licenseno":"STR476776207353"},

"companyName":"SRSPvtLmt",

"vehicles":[{"company":{"name":"Honda","gstno":"22SARDA0043A1Z5",
"address":[{"streetno":45,"city":"Belgavi","state":"karanataka","pincode":432678},
{"streetno":32,"city":"Dharwad","state":"karanataka","pincode":561137}]},
"regNo":"KA03FA2581","chasisno":"52WVC10338","permitno":"23GA"},

{"company":{"name":"TATA","gstno":"22SARDA0043A1Z5",
"address":[{"streetno":45,"city":"Gadag","state":"karanataka","pincode":537728},
{"streetno":32,"city":"Dharwad","state":"karanataka","pincode":561137}]},
"regNo":"KA03FA2583","chasisno":"52WVC10334","permitno":"23GA"},

{"company":{"name":"PUMA","gstno":"22SARDA0043A1Z5",
"address":[{"streetno":45,"city":"Dharwad","state":"karanataka","pincode":211647},
{"streetno":32,"city":"Dharwad","state":"karanataka","pincode":561137}]},
"regNo":"KA03FA2581","chasisno":"52WVC10865","permitno":"23GA"},

{"company":{"name":"Dell","gstno":"22SARDA0043A1Z5",
"address":[{"streetno":45,"city":"Hasan","state":"karanataka","pincode":432674},
{"streetno":32,"city":"Dharwad","state":"karanataka","pincode":561137}]},
"regNo":"KA03FA2581","chasisno":"52WVC10865","permitno":"23GA"},

{"company":{"name":"Samsung","gstno":"22SARDA0043A1Z5",
"address":[{"streetno":45,"city":"Ballari","state":"karanataka","pincode":865432},
{"streetno":32,"city":"Dharwad","state":"karanataka","pincode":561137}]},
"regNo":"GA03FA2581","chasisno":"52WVC10672","permitno":"23GA"}]
				 
}
},
{"name":"Kushal",
"experince":"6 years",
"skills":["DataAnalysis","CloudComputing","MachineLearning","CyberSecrity","NetworkingAndWirless","Programming","SoftwareDevelopement","ProjectManagement"],
"Salary":300000,
"Married":"yes",
"transport":{"name":"Kadambatrevals","time":"08.30","date":"23/5/2022",
"driver":{"name":"Arun","location":"Bagalkot","licenseno":"STR476776207353"},

"companyName":"KadabaPvtLmt",

"vehicles":[{"company":{"name":"Honda","gstno":"22SARDA0043A1Z5",
"address":[{"streetno":45,"city":"Belgavi","state":"karanataka","pincode":432678},
{"streetno":32,"city":"Dharwad","state":"karanataka","pincode":561137}]},
"regNo":"KA03FA2581","chasisno":"52WVC10338","permitno":"23GA"},

{"company":{"name":"TATA","gstno":"22SARDA0043A1Z5",
"address":[{"streetno":45,"city":"Gadag","state":"karanataka","pincode":537728},
{"streetno":32,"city":"Dharwad","state":"karanataka","pincode":561137}]},
"regNo":"KA03FA2583","chasisno":"52WVC10334","permitno":"23GA"},

{"company":{"name":"PUMA","gstno":"22SARDA0043A1Z5",
"address":[{"streetno":45,"city":"Dharwad","state":"karanataka","pincode":211647},
{"streetno":32,"city":"Dharwad","state":"karanataka","pincode":561137}]},
"regNo":"KA03FA2581","chasisno":"52WVC10865","permitno":"23GA"},

{"company":{"name":"Dell","gstno":"22SARDA0043A1Z5",
"address":[{"streetno":45,"city":"Hasan","state":"karanataka","pincode":432674},
{"streetno":32,"city":"Dharwad","state":"karanataka","pincode":561137}]},
"regNo":"KA03FA2581","chasisno":"52WVC10865","permitno":"23GA"},

{"company":{"name":"Samsung","gstno":"22SARDA0043A1Z5",
"address":[{"streetno":45,"city":"Ballari","state":"karanataka","pincode":865432},
{"streetno":32,"city":"Dharwad","state":"karanataka","pincode":561137}]},
"regNo":"GA03FA2581","chasisno":"52WVC10672","permitno":"23GA"}]
				 
}
}
]
}